{"fetched_at":"2026-03-30T06:02:59Z","count":15439,"tles":[{"name":"KUIPER-00124","line1":"1 65953U 25228G   26087.87926131  .00004337  00000+0  59739-3 0  9999","line2":"2 65953  51.8982 270.7220 0000651  98.9629 261.1407 14.79943258 26144","category":"Other"}]}